{
"type": "FeatureCollection",
"name": "stations",
"crs": { "type": "name", "properties": { "name": "urn:ogc:def:crs:OGC:1.3:CRS84" } },
"features": [
{ "type": "Feature", "properties": { "station": "02T", "name_th": "มหาวิทยาลัยราชภัฏบ้านสมเด็จเจ้าพระยา", "name_en": "Bansomdejchaopraya Rajabhat University", "lat": 13.732846, "lon": 100.487662, "prov_code": "10", "prov_th": "กรุงเทพมหานคร", "prov_en": "Bangkok", "region": "Central" }, "geometry": { "type": "Point", "coordinates": [ 100.487662, 13.732846 ] } },
{ "type": "Feature", "properties": { "station": "03T", "name_th": "ริมถนนทางหลวงหมายเลข 3902", "name_en": "Highway NO.3902 km.13 +600", "lat": 13.636514, "lon": 100.414262, "prov_code": "10", "prov_th": "กรุงเทพมหานคร", "prov_en": "Bangkok", "region": "Central" }, "geometry": { "type": "Point", "coordinates": [ 100.414262, 13.636514 ] } },
{ "type": "Feature", "properties": { "station": "05T", "name_th": "กรมอุตุนิยมวิทยาบางนา", "name_en": "Thai Meteorological Department", "lat": 13.666183, "lon": 100.605742, "prov_code": "10", "prov_th": "กรุงเทพมหานคร", "prov_en": "Bangkok", "region": "Central" }, "geometry": { "type": "Point", "coordinates": [ 100.605742, 13.666183 ] } },
{ "type": "Feature", "properties": { "station": "08T", "name_th": "ศูนย์ฟื้นฟูอาชีพคนพิการและทุพลภาพ", "name_en": "Prabadang Rehabiltation Center", "lat": 13.664087, "lon": 100.543436, "prov_code": "11", "prov_th": "สมุทรปราการ", "prov_en": "Samut Prakan", "region": "Central" }, "geometry": { "type": "Point", "coordinates": [ 100.543436, 13.664087 ] } },
{ "type": "Feature", "properties": { "station": "100T", "name_th": "สถานีอุตุนิยมวิทยาจันทบุรี", "name_en": "Chanthaburi Meteorological Station", "lat": 12.6095704, "lon": 102.1040804, "prov_code": "22", "prov_th": "จันทบุรี", "prov_en": "Chanthaburi", "region": "East" }, "geometry": { "type": "Point", "coordinates": [ 102.1040804, 12.6095704 ] } },
{ "type": "Feature", "properties": { "station": "101T", "name_th": "ศาลากลางจังหวัดบุรีรัมย์", "name_en": "Buriram City Hall", "lat": 14.945452, "lon": 103.105896, "prov_code": "31", "prov_th": "บุรีรัมย์", "prov_en": "Buriram", "region": "Northeast" }, "geometry": { "type": "Point", "coordinates": [ 103.105896, 14.945452 ] } },
{ "type": "Feature", "properties": { "station": "102T", "name_th": "สนามกีฬากลางจังหวัดมุกดาหาร", "name_en": "Mukdahan Provincial Stadium", "lat": 16.54257, "lon": 104.7192, "prov_code": "49", "prov_th": "มุกดาหาร", "prov_en": "Mukdahan", "region": "Northeast" }, "geometry": { "type": "Point", "coordinates": [ 104.7192, 16.54257 ] } },
{ "type": "Feature", "properties": { "station": "103T", "name_th": "สถานีตรวจอากาศหัวหิน สถานีอุตุนิยมวิทยาประจวบคีรีขันธ์", "name_en": "Hua Hin Weather Station Prachuap Khiri Khan Meteorological Station", "lat": 12.577835, "lon": 99.953663, "prov_code": "77", "prov_th": "ประจวบคีรีขันธ์", "prov_en": "Prachuap Khiri Khan", "region": "West" }, "geometry": { "type": "Point", "coordinates": [ 99.953663, 12.577835 ] } },
{ "type": "Feature", "properties": { "station": "104T", "name_th": "โรงเรียนสิงห์บุรี", "name_en": "SINGBURI SCHOOL", "lat": 14.8933874, "lon": 100.4130773, "prov_code": "17", "prov_th": "สิงห์บุรี", "prov_en": "Sing Buri", "region": "Central" }, "geometry": { "type": "Point", "coordinates": [ 100.4130773, 14.8933874 ] } },
{ "type": "Feature", "properties": { "station": "105T", "name_th": "ศูนย์บริการสาธารณสุขเทศบาลเมืองนครนายก", "name_en": "Nakhon Nayok Municipality Public Health Service Center", "lat": 14.20422, "lon": 101.21509, "prov_code": "26", "prov_th": "นครนายก", "prov_en": "Nakhon Nayok", "region": "Central" }, "geometry": { "type": "Point", "coordinates": [ 101.21509, 14.20422 ] } },
{ "type": "Feature", "properties": { "station": "106T", "name_th": "สวนสาธารณะหนองบึงกาฬ", "name_en": "Nong Bueng Kan Park", "lat": 18.362008, "lon": 103.65977, "prov_code": "38", "prov_th": "บึงกาฬ", "prov_en": "Bueng Kan", "region": "Northeast" }, "geometry": { "type": "Point", "coordinates": [ 103.65977, 18.362008 ] } },
{ "type": "Feature", "properties": { "station": "107T", "name_th": "สวนสาธารณะแก่งดอนกลาง", "name_en": "KAENG DON KLANG PARK", "lat": 16.4436, "lon": 103.513, "prov_code": "46", "prov_th": "กาฬสินธุ์", "prov_en": "Kalasin", "region": "Northeast" }, "geometry": { "type": "Point", "coordinates": [ 103.513, 16.4436 ] } },
{ "type": "Feature", "properties": { "station": "108T", "name_th": "สนามกีฬาเทศบาลเมืองชัยภูมิ", "name_en": "Mueang Chaiyaphum Municipality Stadium", "lat": 15.81148, "lon": 102.02281, "prov_code": "36", "prov_th": "ชัยภูมิ", "prov_en": "Chaiyaphum", "region": "Northeast" }, "geometry": { "type": "Point", "coordinates": [ 102.02281, 15.81148 ] } },
{ "type": "Feature", "properties": { "station": "109T", "name_th": "สวนสาธารณะพญาแถน", "name_en": "Phaya Thaen Public Park", "lat": 15.783861, "lon": 104.154639, "prov_code": "35", "prov_th": "ยโสธร", "prov_en": "Yasothon", "region": "Northeast" }, "geometry": { "type": "Point", "coordinates": [ 104.154639, 15.783861 ] } },
{ "type": "Feature", "properties": { "station": "110T", "name_th": "สำนักงานเทศบาลเมืองอำนาจเจริญ", "name_en": "Amnat Charoen Municipality", "lat": 15.8758, "lon": 104.6223, "prov_code": "37", "prov_th": "อำนาจเจริญ", "prov_en": "Amnat Charoen", "region": "Northeast" }, "geometry": { "type": "Point", "coordinates": [ 104.6223, 15.8758 ] } },
{ "type": "Feature", "properties": { "station": "111T", "name_th": "สถานีอุตุนิยมวิทยาสุรินทร์", "name_en": "Surin Meteorological Center", "lat": 14.8762222, "lon": 103.4965833, "prov_code": "32", "prov_th": "สุรินทร์", "prov_en": "Surin", "region": "Northeast" }, "geometry": { "type": "Point", "coordinates": [ 103.4965833, 14.8762222 ] } },
{ "type": "Feature", "properties": { "station": "112T", "name_th": "สถานีอุตุนิยมวิทยาศรีสะเกษ", "name_en": "Sisaket Meteorological Center", "lat": 15.087087, "lon": 104.326787, "prov_code": "33", "prov_th": "ศรีสะเกษ", "prov_en": "Sisaket", "region": "Northeast" }, "geometry": { "type": "Point", "coordinates": [ 104.326787, 15.087087 ] } },
{ "type": "Feature", "properties": { "station": "12T", "name_th": "โรงเรียนนนทรีวิทยา", "name_en": "Nonsi Witthaya School", "lat": 13.70806667, "lon": 100.5473333, "prov_code": "10", "prov_th": "กรุงเทพมหานคร", "prov_en": "Bangkok", "region": "Central" }, "geometry": { "type": "Point", "coordinates": [ 100.54733330000002, 13.70806667 ] } },
{ "type": "Feature", "properties": { "station": "13T", "name_th": "กรมควบคุมโรค", "name_en": "Department of Disease Control", "lat": 13.852778, "lon": 100.529444, "prov_code": "12", "prov_th": "นนทบุรี", "prov_en": "Nonthaburi", "region": "Central" }, "geometry": { "type": "Point", "coordinates": [ 100.529444, 13.852778 ] } },
{ "type": "Feature", "properties": { "station": "14T", "name_th": "แขวงการทางสมุทรสาคร", "name_en": "Highway District", "lat": 13.7054879, "lon": 100.315622, "prov_code": "74", "prov_th": "สมุทรสาคร", "prov_en": "Samut Sakhon", "region": "Central" }, "geometry": { "type": "Point", "coordinates": [ 100.315622, 13.7054879 ] } },
{ "type": "Feature", "properties": { "station": "16T", "name_th": "โรงไฟฟ้าพระนครใต้", "name_en": "South Bangkok Power Plant", "lat": 13.618, "lon": 100.5562, "prov_code": "11", "prov_th": "สมุทรปราการ", "prov_en": "Samut Prakan", "region": "Central" }, "geometry": { "type": "Point", "coordinates": [ 100.5562, 13.618 ] } },
{ "type": "Feature", "properties": { "station": "17T", "name_th": "บ้านพักกรมอุตสาหกรรมพื้นฐานและการเหมืองแร่", "name_en": "Residence for Dept. of Mineral Resources", "lat": 13.652141, "lon": 100.531805, "prov_code": "11", "prov_th": "สมุทรปราการ", "prov_en": "Samut Prakan", "region": "Central" }, "geometry": { "type": "Point", "coordinates": [ 100.531805, 13.652141 ] } },
{ "type": "Feature", "properties": { "station": "18T", "name_th": "ศาลากลางจังหวัดสมุทรปราการ", "name_en": "City Hall, Samut Prakan", "lat": 13.599149, "lon": 100.597345, "prov_code": "11", "prov_th": "สมุทรปราการ", "prov_en": "Samut Prakan", "region": "Central" }, "geometry": { "type": "Point", "coordinates": [ 100.597345, 13.599149 ] } },
{ "type": "Feature", "properties": { "station": "19T", "name_th": "การเคหะชุมชนเมืองใหม่บางพลี", "name_en": "National Housing Authority Bangplee", "lat": 13.5705, "lon": 100.7862867, "prov_code": "11", "prov_th": "สมุทรปราการ", "prov_en": "Samut Prakan", "region": "Central" }, "geometry": { "type": "Point", "coordinates": [ 100.7862867, 13.5705 ] } },
{ "type": "Feature", "properties": { "station": "20T", "name_th": "มหาวิทยาลัยกรุงเทพ วิทยาเขตรังสิต", "name_en": "Bangkok University Rangsit Campus", "lat": 14.03742, "lon": 100.605216, "prov_code": "13", "prov_th": "ปทุมธานี", "prov_en": "Pathum Thani", "region": "Central" }, "geometry": { "type": "Point", "coordinates": [ 100.605216, 14.03742 ] } },
{ "type": "Feature", "properties": { "station": "21T", "name_th": "โรงเรียนอยุธยาวิทยาลัย", "name_en": "Ayutthaya Witthayalai School", "lat": 14.35222, "lon": 100.565325, "prov_code": "14", "prov_th": "พระนครศรีอยุธยา", "prov_en": "Phra Nakhon Si Ayutthaya", "region": "Central" }, "geometry": { "type": "Point", "coordinates": [ 100.565325, 14.35222 ] } },
{ "type": "Feature", "properties": { "station": "22T", "name_th": "มหาวิทยาลัยสุโขทัยธรรมาธิราช", "name_en": "Sukhothai Thammathirat Open University", "lat": 13.907861, "lon": 100.535641, "prov_code": "12", "prov_th": "นนทบุรี", "prov_en": "Nonthaburi", "region": "Central" }, "geometry": { "type": "Point", "coordinates": [ 100.535641, 13.907861 ] } },
{ "type": "Feature", "properties": { "station": "24T", "name_th": "สถานีตำรวจภูธรตำบลหน้าพระลาน", "name_en": "Na Phralan Police Station", "lat": 14.685833, "lon": 100.871996, "prov_code": "19", "prov_th": "สระบุรี", "prov_en": "Saraburi", "region": "Central" }, "geometry": { "type": "Point", "coordinates": [ 100.871996, 14.685833 ] } },
{ "type": "Feature", "properties": { "station": "25T", "name_th": "สถานีดับเพลิงพระลักษณ์", "name_en": "Khao Noi Fire Station", "lat": 14.526343, "lon": 100.926047, "prov_code": "19", "prov_th": "สระบุรี", "prov_en": "Saraburi", "region": "Central" }, "geometry": { "type": "Point", "coordinates": [ 100.926047, 14.526343 ] } },
{ "type": "Feature", "properties": { "station": "26T", "name_th": "สำนักงานสิ่งแวดล้อมภาคที่8", "name_en": "Environmental Office 8 ratchaburi", "lat": 13.52344, "lon": 99.814082, "prov_code": "70", "prov_th": "ราชบุรี", "prov_en": "Ratchaburi", "region": "West" }, "geometry": { "type": "Point", "coordinates": [ 99.814082, 13.52344 ] } },
{ "type": "Feature", "properties": { "station": "27T", "name_th": "โรงเรียนสมุทรสาครวิทยาลัย", "name_en": "Samut Sakhon Wittayalai School", "lat": 13.5502631, "lon": 100.2647676, "prov_code": "74", "prov_th": "สมุทรสาคร", "prov_en": "Samut Sakhon", "region": "Central" }, "geometry": { "type": "Point", "coordinates": [ 100.2647676, 13.5502631 ] } },
{ "type": "Feature", "properties": { "station": "28T", "name_th": "สำนักงานสาธารณสุขอำเภอปลวกแดง", "name_en": "Pluakdaeng District Health Office", "lat": 12.97378333, "lon": 101.21285, "prov_code": "21", "prov_th": "ระยอง", "prov_en": "Rayong", "region": "East" }, "geometry": { "type": "Point", "coordinates": [ 101.21285, 12.97378333 ] } },
{ "type": "Feature", "properties": { "station": "29T", "name_th": "โรงพยาบาลส่งเสริมสุขภาพตำบลมาบตาพุด", "name_en": "Health Promotion Hospital Maptaput", "lat": 12.70865, "lon": 101.1659833, "prov_code": "21", "prov_th": "ระยอง", "prov_en": "Rayong", "region": "East" }, "geometry": { "type": "Point", "coordinates": [ 101.1659833, 12.70865 ] } },
{ "type": "Feature", "properties": { "station": "30T", "name_th": "สนามกีฬากลางจังหวัดระยอง", "name_en": "Rayong Provincial Stadium", "lat": 12.678917, "lon": 101.234664, "prov_code": "21", "prov_th": "ระยอง", "prov_en": "Rayong", "region": "East" }, "geometry": { "type": "Point", "coordinates": [ 101.234664, 12.678917 ] } },
{ "type": "Feature", "properties": { "station": "31T", "name_th": "ศูนย์วิจัยพืชไร่ระยอง", "name_en": "Field Crop Research Center, Rayong", "lat": 12.73518333, "lon": 101.13565, "prov_code": "21", "prov_th": "ระยอง", "prov_en": "Rayong", "region": "East" }, "geometry": { "type": "Point", "coordinates": [ 101.13565, 12.73518333 ] } },
{ "type": "Feature", "properties": { "station": "33T", "name_th": "โรงพยาบาลส่งเสริมสุขภาพตำบลบ้านเขาหิน", "name_en": "Health Promotion Hospital Bankhaohin", "lat": 13.054551, "lon": 101.098128, "prov_code": "20", "prov_th": "ชลบุรี", "prov_en": "Chonburi", "region": "East" }, "geometry": { "type": "Point", "coordinates": [ 101.098128, 13.054551 ] } },
{ "type": "Feature", "properties": { "station": "34T", "name_th": "สำนักงานสิ่งแวดล้อมภาคที่ 13", "name_en": "Environment Agency Section 13, Chonburi", "lat": 13.35461667, "lon": 100.9792167, "prov_code": "20", "prov_th": "ชลบุรี", "prov_en": "Chonburi", "region": "East" }, "geometry": { "type": "Point", "coordinates": [ 100.9792167, 13.35461667 ] } },
{ "type": "Feature", "properties": { "station": "35T", "name_th": "ศูนย์ราชการจังหวัดเชียงใหม่", "name_en": "City Hall, Chiangmai", "lat": 18.840732, "lon": 98.96978, "prov_code": "50", "prov_th": "เชียงใหม่", "prov_en": "Chiang Mai", "region": "North" }, "geometry": { "type": "Point", "coordinates": [ 98.96978, 18.840732 ] } },
{ "type": "Feature", "properties": { "station": "36T", "name_th": "โรงเรียนยุพราชวิทยาลัย", "name_en": "Yupparaj Wittayalai School", "lat": 18.7909333, "lon": 98.99, "prov_code": "50", "prov_th": "เชียงใหม่", "prov_en": "Chiang Mai", "region": "North" }, "geometry": { "type": "Point", "coordinates": [ 98.99, 18.7909333 ] } },
{ "type": "Feature", "properties": { "station": "37T", "name_th": "สถานีอุตุนิยมวิทยาลำปาง", "name_en": "Meteorological stations, Lampang", "lat": 18.2783333, "lon": 99.5064666, "prov_code": "52", "prov_th": "ลำปาง", "prov_en": "Lampang", "region": "North" }, "geometry": { "type": "Point", "coordinates": [ 99.5064666, 18.2783333 ] } },
{ "type": "Feature", "properties": { "station": "38T", "name_th": "โรงพยาบาลส่งเสริมสุขภาพตำบลบ้านสบป้าด", "name_en": "Health Promotion Hospital Sob Pad, Lampang", "lat": 18.2508166, "lon": 99.76395, "prov_code": "52", "prov_th": "ลำปาง", "prov_en": "Lampang", "region": "North" }, "geometry": { "type": "Point", "coordinates": [ 99.76395, 18.2508166 ] } },
{ "type": "Feature", "properties": { "station": "39T", "name_th": "โรงพยาบาลส่งเสริมสุขภาพตำบลท่าสี", "name_en": "Health Promotion Hospital Banthasri", "lat": 18.4267833, "lon": 99.7576333, "prov_code": "52", "prov_th": "ลำปาง", "prov_en": "Lampang", "region": "North" }, "geometry": { "type": "Point", "coordinates": [ 99.7576333, 18.4267833 ] } },
{ "type": "Feature", "properties": { "station": "40T", "name_th": "การประปาส่วนภูมิภาคแม่เมาะ", "name_en": "Provincial Waterworks Authority Mae Moh", "lat": 18.2826333, "lon": 99.6598166, "prov_code": "52", "prov_th": "ลำปาง", "prov_en": "Lampang", "region": "North" }, "geometry": { "type": "Point", "coordinates": [ 99.659816600000013, 18.2826333 ] } },
{ "type": "Feature", "properties": { "station": "41T", "name_th": "โครงการชลประทานนครสวรรค์", "name_en": "Nakhonsawan Irrigation Project", "lat": 15.68623, "lon": 100.110556, "prov_code": "60", "prov_th": "นครสวรรค์", "prov_en": "Nakhon Sawan", "region": "Central" }, "geometry": { "type": "Point", "coordinates": [ 100.110556, 15.68623 ] } },
{ "type": "Feature", "properties": { "station": "42T", "name_th": "สำนักงานสิ่งแวดล้อมภาคที่ 14", "name_en": "Environment Agency Section 14, Surat Thani", "lat": 9.126017, "lon": 99.325145, "prov_code": "84", "prov_th": "สุราษฎร์ธานี", "prov_en": "Surat Thani", "region": "South" }, "geometry": { "type": "Point", "coordinates": [ 99.325145, 9.126017 ] } },
{ "type": "Feature", "properties": { "station": "43T", "name_th": "ศูนย์บริการสาธารณสุขเทศบาลภูเก็ต", "name_en": "Municipal Health Center", "lat": 7.884488, "lon": 98.391283, "prov_code": "83", "prov_th": "ภูเก็ต", "prov_en": "Phuket", "region": "South" }, "geometry": { "type": "Point", "coordinates": [ 98.391283, 7.884488 ] } },
{ "type": "Feature", "properties": { "station": "44T", "name_th": "เทศบาลนครหาดใหญ่", "name_en": "Hat Yai Municipality", "lat": 7.020434, "lon": 100.484088, "prov_code": "90", "prov_th": "สงขลา", "prov_en": "Songkhla", "region": "South" }, "geometry": { "type": "Point", "coordinates": [ 100.484088, 7.020434 ] } },
{ "type": "Feature", "properties": { "station": "46T", "name_th": "ส่วนอุทกวิทยา สำนักงานทรัพยากรน้ำภาคที่4 ขอนแก่น", "name_en": "Hydrogeological Group Water Resources Regional Office4 khonkaen", "lat": 16.44538333, "lon": 102.83525, "prov_code": "40", "prov_th": "ขอนแก่น", "prov_en": "Khon Kaen", "region": "Northeast" }, "geometry": { "type": "Point", "coordinates": [ 102.83525, 16.44538333 ] } },
{ "type": "Feature", "properties": { "station": "47T", "name_th": "สถานีสูบน้ำประตูพลแสน", "name_en": "Municipal Waste Water Pumping Station", "lat": 14.979537, "lon": 102.098335, "prov_code": "30", "prov_th": "นครราชสีมา", "prov_en": "Nakhon Ratchasima", "region": "Northeast" }, "geometry": { "type": "Point", "coordinates": [ 102.098335, 14.979537 ] } },
{ "type": "Feature", "properties": { "station": "50T", "name_th": "โรงพยาบาลจุฬาลงกรณ์", "name_en": "Chulalongkorn Hospital", "lat": 13.729852, "lon": 100.536501, "prov_code": "10", "prov_th": "กรุงเทพมหานคร", "prov_en": "Bangkok", "region": "Central" }, "geometry": { "type": "Point", "coordinates": [ 100.536501, 13.729852 ] } },
{ "type": "Feature", "properties": { "station": "52T", "name_th": "การไฟฟ้าย่อยธนบุรี", "name_en": "Thonburi Power Sub-Station", "lat": 13.727622, "lon": 100.486568, "prov_code": "10", "prov_th": "กรุงเทพมหานคร", "prov_en": "Bangkok", "region": "Central" }, "geometry": { "type": "Point", "coordinates": [ 100.486568, 13.727622 ] } },
{ "type": "Feature", "properties": { "station": "53T", "name_th": "สถานีตำรวจนครบาลโชคชัย", "name_en": "Chokchai Police Station", "lat": 13.7954248, "lon": 100.5930298, "prov_code": "10", "prov_th": "กรุงเทพมหานคร", "prov_en": "Bangkok", "region": "Central" }, "geometry": { "type": "Point", "coordinates": [ 100.5930298, 13.7954248 ] } },
{ "type": "Feature", "properties": { "station": "54T", "name_th": "การเคหะชุมชนดินแดง", "name_en": "National Housing Authority Dindaeng", "lat": 13.76251667, "lon": 100.5502, "prov_code": "10", "prov_th": "กรุงเทพมหานคร", "prov_en": "Bangkok", "region": "Central" }, "geometry": { "type": "Point", "coordinates": [ 100.5502, 13.76251667 ] } },
{ "type": "Feature", "properties": { "station": "57T", "name_th": "สำนักงานทรัพยากรธรรมชาติและสิ่งแวดล้อมจังหวัดเชียงราย", "name_en": "Natural Resources and Environment Office, Chiangrai", "lat": 19.909217, "lon": 99.823467, "prov_code": "57", "prov_th": "เชียงราย", "prov_en": "Chiang Rai", "region": "North" }, "geometry": { "type": "Point", "coordinates": [ 99.823467, 19.909217 ] } },
{ "type": "Feature", "properties": { "station": "58T", "name_th": "สำนักงานทรัพยากรธรรมชาติและสิ่งแวดล้อมจังหวัดแม่ฮ่องสอน", "name_en": "Natural Resources and Environment Office, Mae Hongson", "lat": 19.30455, "lon": 97.97165, "prov_code": "58", "prov_th": "แม่ฮ่องสอน", "prov_en": "Mae Hong Son", "region": "North" }, "geometry": { "type": "Point", "coordinates": [ 97.97165, 19.30455 ] } },
{ "type": "Feature", "properties": { "station": "59T", "name_th": "กรมประชาสัมพันธ์", "name_en": "The Government Public Relations Department", "lat": 13.783185, "lon": 100.540489, "prov_code": "10", "prov_th": "กรุงเทพมหานคร", "prov_en": "Bangkok", "region": "Central" }, "geometry": { "type": "Point", "coordinates": [ 100.540489, 13.783185 ] } },
{ "type": "Feature", "properties": { "station": "60T", "name_th": "สำนักงานเทศบาลตำบลทุ่งสะเดา", "name_en": "Municipality Office Tungsadao", "lat": 13.5885, "lon": 101.2863333, "prov_code": "24", "prov_th": "ฉะเชิงเทรา", "prov_en": "Chachoengsao", "region": "East" }, "geometry": { "type": "Point", "coordinates": [ 101.2863333, 13.5885 ] } },
{ "type": "Feature", "properties": { "station": "61T", "name_th": "โรงเรียนบดินทรเดชา (สิงห์ สิงหเสนี)", "name_en": "Bodindecha Sing Singhaseni School", "lat": 13.769634, "lon": 100.614567, "prov_code": "10", "prov_th": "กรุงเทพมหานคร", "prov_en": "Bangkok", "region": "Central" }, "geometry": { "type": "Point", "coordinates": [ 100.614567, 13.769634 ] } },
{ "type": "Feature", "properties": { "station": "62T", "name_th": "ศาลากลางจังหวัดนราธิวาส", "name_en": "City Hall, Narathiwat", "lat": 6.426853, "lon": 101.823388, "prov_code": "96", "prov_th": "นราธิวาส", "prov_en": "Narathiwat", "region": "South" }, "geometry": { "type": "Point", "coordinates": [ 101.823388, 6.426853 ] } },
{ "type": "Feature", "properties": { "station": "63T", "name_th": "สนามโรงพิธีช้างเผือก", "name_en": "White Elephant Park", "lat": 6.546205, "lon": 101.283137, "prov_code": "95", "prov_th": "ยะลา", "prov_en": "Yala", "region": "South" }, "geometry": { "type": "Point", "coordinates": [ 101.283137, 6.546205 ] } },
{ "type": "Feature", "properties": { "station": "67T", "name_th": "สำนักงานเทศบาลเมืองน่าน", "name_en": "Municipality Office, Nan", "lat": 18.7888833, "lon": 100.7763166, "prov_code": "55", "prov_th": "น่าน", "prov_en": "Nan", "region": "North" }, "geometry": { "type": "Point", "coordinates": [ 100.7763166, 18.7888833 ] } },
{ "type": "Feature", "properties": { "station": "68T", "name_th": "อุตุนิยมวิทยาลำพูน", "name_en": "Meteorological Staions, Lamphun", "lat": 18.567194, "lon": 99.038639, "prov_code": "51", "prov_th": "ลำพูน", "prov_en": "Lamphun", "region": "North" }, "geometry": { "type": "Point", "coordinates": [ 99.038639, 18.567194 ] } },
{ "type": "Feature", "properties": { "station": "69T", "name_th": "อุตุนิยมวิทยาจังหวัดแพร่", "name_en": "Meteorology Center, Phrae", "lat": 18.1283666, "lon": 100.1624333, "prov_code": "54", "prov_th": "แพร่", "prov_en": "Phrae", "region": "North" }, "geometry": { "type": "Point", "coordinates": [ 100.1624333, 18.1283666 ] } },
{ "type": "Feature", "properties": { "station": "70T", "name_th": "สนามกีฬาจังหวัดพะเยา", "name_en": "Phayao Provincial, Phayao", "lat": 19.200226, "lon": 99.893048, "prov_code": "56", "prov_th": "พะเยา", "prov_en": "Phayao", "region": "North" }, "geometry": { "type": "Point", "coordinates": [ 99.893048, 19.200226 ] } },
{ "type": "Feature", "properties": { "station": "71T", "name_th": "สวนกาญจนาภิเษก ร.9 (ฝั่งสวนหิน)", "name_en": "Kanjanapisek Park", "lat": 13.691047, "lon": 102.510442, "prov_code": "27", "prov_th": "สระแก้ว", "prov_en": "Sa Kaeo", "region": "East" }, "geometry": { "type": "Point", "coordinates": [ 102.510442, 13.691047 ] } },
{ "type": "Feature", "properties": { "station": "72T", "name_th": "สวนสาธารณะเฉลิมพระเกียรติ 60 พรรษามหาราชินี จังหวัดเลย", "name_en": "60th Anniversary Queen Sirikit Public Park, Loei", "lat": 17.48462, "lon": 101.732734, "prov_code": "42", "prov_th": "เลย", "prov_en": "Loei", "region": "Northeast" }, "geometry": { "type": "Point", "coordinates": [ 101.732734, 17.48462 ] } },
{ "type": "Feature", "properties": { "station": "73T", "name_th": "สำนักงานสาธารณสุขแม่สาย", "name_en": "Maesai Health Office", "lat": 20.427325, "lon": 99.883842, "prov_code": "57", "prov_th": "เชียงราย", "prov_en": "Chiang Rai", "region": "North" }, "geometry": { "type": "Point", "coordinates": [ 99.883842, 20.427325 ] } },
{ "type": "Feature", "properties": { "station": "74T", "name_th": "ศูนย์ราชการจังหวัดระยอง", "name_en": "Government Complex, Rayong", "lat": 12.7066, "lon": 101.18055, "prov_code": "21", "prov_th": "ระยอง", "prov_en": "Rayong", "region": "East" }, "geometry": { "type": "Point", "coordinates": [ 101.18055, 12.7066 ] } },
{ "type": "Feature", "properties": { "station": "75T", "name_th": "โรงพยาบาลเฉลิมพระเกียรติ", "name_en": "Chalermprakiet Hospital", "lat": 19.5759666, "lon": 101.0815166, "prov_code": "55", "prov_th": "น่าน", "prov_en": "Nan", "region": "North" }, "geometry": { "type": "Point", "coordinates": [ 101.0815166, 19.5759666 ] } },
{ "type": "Feature", "properties": { "station": "76T", "name_th": "ศูนย์การศึกษานอกโรงเรียน", "name_en": "Non-Formal Education Centre, Mea Sot", "lat": 16.734413, "lon": 98.566961, "prov_code": "63", "prov_th": "ตาก", "prov_en": "Tak", "region": "West" }, "geometry": { "type": "Point", "coordinates": [ 98.566961, 16.734413 ] } },
{ "type": "Feature", "properties": { "station": "77T", "name_th": "ศาลาประชาคมบ้านบุยายใบ", "name_en": "Bu Yai Bai Hall Station", "lat": 13.917563, "lon": 101.590529, "prov_code": "25", "prov_th": "ปราจีนบุรี", "prov_en": "Prachin Buri", "region": "East" }, "geometry": { "type": "Point", "coordinates": [ 101.590529, 13.917563 ] } },
{ "type": "Feature", "properties": { "station": "78T", "name_th": "ศูนย์พัฒนาเด็กเล็กเทศบาลเมืองเบตง", "name_en": "child development centers, Betong", "lat": 5.763873, "lon": 101.067903, "prov_code": "95", "prov_th": "ยะลา", "prov_en": "Yala", "region": "South" }, "geometry": { "type": "Point", "coordinates": [ 101.067903, 5.763873 ] } },
{ "type": "Feature", "properties": { "station": "79T", "name_th": "สถานีอุตุนิยมวิทยา จ.กาญจนบุรี", "name_en": "Kanchanaburi Meteorological Station", "lat": 14.022376, "lon": 99.536195, "prov_code": "71", "prov_th": "กาญจนบุรี", "prov_en": "Kanchanaburi", "region": "West" }, "geometry": { "type": "Point", "coordinates": [ 99.536195, 14.022376 ] } },
{ "type": "Feature", "properties": { "station": "80T", "name_th": "ศาลากลาง จ.สตูล", "name_en": "City Hall, Satun", "lat": 6.624747, "lon": 100.066159, "prov_code": "91", "prov_th": "สตูล", "prov_en": "Satun", "region": "South" }, "geometry": { "type": "Point", "coordinates": [ 100.066159, 6.624747 ] } },
{ "type": "Feature", "properties": { "station": "81T", "name_th": "อ่างเก็บน้ำประปา", "name_en": "Water reservoir", "lat": 13.832076, "lon": 100.057961, "prov_code": "73", "prov_th": "นครปฐม", "prov_en": "Nakhon Pathom", "region": "Central" }, "geometry": { "type": "Point", "coordinates": [ 100.057961, 13.832076 ] } },
{ "type": "Feature", "properties": { "station": "82T", "name_th": "สวนสาธารณะหนองถิ่น", "name_en": "Nong Thin Public Park, Nong Khai", "lat": 17.87748, "lon": 102.728925, "prov_code": "43", "prov_th": "หนองคาย", "prov_en": "Nong Khai", "region": "Northeast" }, "geometry": { "type": "Point", "coordinates": [ 102.728925, 17.87748 ] } },
{ "type": "Feature", "properties": { "station": "83T", "name_th": "ศูนย์แสดงและจำหน่ายสินค้า OTOP จังหวัดอุบลราชธานี", "name_en": "OTOP Center, Ubon Ratchathani", "lat": 15.245413, "lon": 104.846219, "prov_code": "34", "prov_th": "อุบลราชธานี", "prov_en": "Ubon Ratchathani", "region": "Northeast" }, "geometry": { "type": "Point", "coordinates": [ 104.846219, 15.245413 ] } },
{ "type": "Feature", "properties": { "station": "84T", "name_th": "สำนักงานสาธารณสุขจังหวัดสมุทรสงคราม", "name_en": "Samut Songkhram Health Office", "lat": 13.428581, "lon": 100.024664, "prov_code": "75", "prov_th": "สมุทรสงคราม", "prov_en": "Samut Songkhram", "region": "Central" }, "geometry": { "type": "Point", "coordinates": [ 100.024664, 13.428581 ] } },
{ "type": "Feature", "properties": { "station": "85T", "name_th": "สนามกีฬากลางจังหวัดสุพรรณบุรี", "name_en": "Suphan Buri Provincial Central Stadium", "lat": 14.476214, "lon": 100.086095, "prov_code": "72", "prov_th": "สุพรรณบุรี", "prov_en": "Suphan Buri", "region": "Central" }, "geometry": { "type": "Point", "coordinates": [ 100.086095, 14.476214 ] } },
{ "type": "Feature", "properties": { "station": "86T", "name_th": "สวนชมน่านเฉลิมพระเกียรติ", "name_en": "Chom Nan Chaloem Phrakiat Public Park", "lat": 16.820833, "lon": 100.258056, "prov_code": "65", "prov_th": "พิษณุโลก", "prov_en": "Phitsanulok", "region": "Central" }, "geometry": { "type": "Point", "coordinates": [ 100.258056, 16.820833 ] } },
{ "type": "Feature", "properties": { "station": "87T", "name_th": "สนามกีฬากลางจังหวัดตราด", "name_en": "Trat Provincial Central Stadium", "lat": 12.234862, "lon": 102.523721, "prov_code": "23", "prov_th": "ตราด", "prov_en": "Trat", "region": "East" }, "geometry": { "type": "Point", "coordinates": [ 102.523721, 12.234862 ] } },
{ "type": "Feature", "properties": { "station": "88T", "name_th": "สถานีอุตุนิยมวิทยานครพนม", "name_en": "Meteorological stations, Nakhon Phanom", "lat": 17.412345, "lon": 104.7786123, "prov_code": "48", "prov_th": "นครพนม", "prov_en": "Nakhon Phanom", "region": "Northeast" }, "geometry": { "type": "Point", "coordinates": [ 104.7786123, 17.412345 ] } },
{ "type": "Feature", "properties": { "station": "89T", "name_th": "ศูนย์ฟื้นฟูสุขภาพผู้สูงอายุ", "name_en": "Elderly Health Rehabilitation Center", "lat": 8.426923, "lon": 99.961469, "prov_code": "80", "prov_th": "นครศรีธรรมราช", "prov_en": "Nakhon Si Thammarat", "region": "South" }, "geometry": { "type": "Point", "coordinates": [ 99.961469, 8.426923 ] } },
{ "type": "Feature", "properties": { "station": "90T", "name_th": "สถานีอุตุนิยมวิทยาสกลนคร", "name_en": "Meteorological stations, Sakon Nakhon", "lat": 17.15662, "lon": 104.133216, "prov_code": "47", "prov_th": "สกลนคร", "prov_en": "Sakon Nakhon", "region": "Northeast" }, "geometry": { "type": "Point", "coordinates": [ 104.133216, 17.15662 ] } },
{ "type": "Feature", "properties": { "station": "91T", "name_th": "สวนสาธารณะหนองประจักษ์ อุดรธานี", "name_en": "Nong Prajak Public Park, Udon Thani", "lat": 17.414174, "lon": 102.780926, "prov_code": "41", "prov_th": "อุดรธานี", "prov_en": "Udon Thani", "region": "Northeast" }, "geometry": { "type": "Point", "coordinates": [ 102.780926, 17.414174 ] } },
{ "type": "Feature", "properties": { "station": "92T", "name_th": "สวนมหามงคลเฉลิมพระชนมพรรษา 6 รอบ 5 ธันวาคม 2552 อุตรดิตถ์", "name_en": "72nd Anniversary King Bhumibol Public Park, Uttaradit", "lat": 17.631352, "lon": 100.09896, "prov_code": "53", "prov_th": "อุตรดิตถ์", "prov_en": "Uttaradit", "region": "North" }, "geometry": { "type": "Point", "coordinates": [ 100.09896, 17.631352 ] } },
{ "type": "Feature", "properties": { "station": "93T", "name_th": "วิทยาลัยสารพัดช่างตรัง", "name_en": "Polytechnic College, Trang", "lat": 7.570238, "lon": 99.588743, "prov_code": "92", "prov_th": "ตรัง", "prov_en": "Trang", "region": "South" }, "geometry": { "type": "Point", "coordinates": [ 99.588743, 7.570238 ] } },
{ "type": "Feature", "properties": { "station": "94T", "name_th": "ลานอนุรักษ์วัฒนธรรมไทยสิริจิตอุทยาน", "name_en": "Sirichit Thai Cultural Conservation Ground", "lat": 16.475374, "lon": 99.525425, "prov_code": "62", "prov_th": "กำแพงเพชร", "prov_en": "Kamphaeng Phet", "region": "Central" }, "geometry": { "type": "Point", "coordinates": [ 99.525425, 16.475374 ] } },
{ "type": "Feature", "properties": { "station": "95T", "name_th": "สนามกีฬาจังหวัดพิจิตร", "name_en": "Phichit Provincial , Phichit", "lat": 16.442554, "lon": 100.322756, "prov_code": "66", "prov_th": "พิจิตร", "prov_en": "Phichit", "region": "Central" }, "geometry": { "type": "Point", "coordinates": [ 100.322756, 16.442554 ] } },
{ "type": "Feature", "properties": { "station": "96T", "name_th": "สวนสาธารณะ ชุมชนเลอไทย", "name_en": "Le Thai Community Park", "lat": 17.006059, "lon": 99.81927, "prov_code": "64", "prov_th": "สุโขทัย", "prov_en": "Sukhothai", "region": "Central" }, "geometry": { "type": "Point", "coordinates": [ 99.81927, 17.006059 ] } },
{ "type": "Feature", "properties": { "station": "97T", "name_th": "สวนเพชบุระ", "name_en": "Phetbura garden", "lat": 16.418417, "lon": 101.156556, "prov_code": "67", "prov_th": "เพชรบูรณ์", "prov_en": "Phetchabun", "region": "Central" }, "geometry": { "type": "Point", "coordinates": [ 101.156556, 16.418417 ] } },
{ "type": "Feature", "properties": { "station": "98T", "name_th": "สถานีสวนเฉลิมพระเกียรติพระบาทสมเด็จพระเจ้าอยู่หัว เฉลิมพระชนมพรรษา 80 พรรษา", "name_en": "Chaloem Phrakiat Park Station 80th birthday celebration", "lat": 15.384667, "lon": 100.024992, "prov_code": "61", "prov_th": "อุทัยธานี", "prov_en": "Uthai Thani", "region": "Central" }, "geometry": { "type": "Point", "coordinates": [ 100.024992, 15.384667 ] } },
{ "type": "Feature", "properties": { "station": "99T", "name_th": "สถานีอุตุนิยมวิทยาลพบุรี", "name_en": "Meteorological Station Lopburi", "lat": 14.800032, "lon": 100.628548, "prov_code": "16", "prov_th": "ลพบุรี", "prov_en": "Lopburi", "region": "Central" }, "geometry": { "type": "Point", "coordinates": [ 100.628548, 14.800032 ] } }
]
}
